[{"norad_id":"59326","company":"STARLINK","tle_line2":"2 59326  43.0027   5.4683 0001685 255.6882 104.3783 15.27574110 95435","launch_date":"2024-03-25","type":"LEO","tle_line1":"1 59326U 24057G   25340.34775090 -.00001030  00000+0 -27897-4 0  9994","satellite_name":"STARLINK-31632"},{"norad_id":"59327","company":"STARLINK","tle_line2":"2 59327  43.0019 353.7267 0000982 206.5749 153.5053 15.27585938 95571","launch_date":"2024-03-25","type":"LEO","tle_line1":"1 59327U 24057H   25340.39644827  .00000019  00000+0  10191-4 0  9996","satellite_name":"STARLINK-31599"},{"norad_id":"59328","company":"STARLINK","tle_line2":"2 59328  43.0038 353.9093 0000796 229.5314 130.5468 15.27584869 95575","launch_date":"2024-03-25","type":"LEO","tle_line1":"1 59328U 24057J   25340.42086833 -.00000027  00000+0  85325-5 0  9990","satellite_name":"STARLINK-31614"},{"norad_id":"59329","company":"STARLINK","tle_line2":"2 59329  43.0020 353.7876 0000955 260.4992  99.5752 15.27594850 95578","launch_date":"2024-03-25","type":"LEO","tle_line1":"1 59329U 24057K   25340.40415126 -.00002790  00000+0 -91846-4 0  9994","satellite_name":"STARLINK-31493"},{"norad_id":"59330","company":"STARLINK","tle_line2":"2 59330  43.0048 355.8238 0001290 274.2772  85.7933 15.27566522 95525","launch_date":"2024-03-25","type":"LEO","tle_line1":"1 59330U 24057L   25340.10294152 -.00001484  00000+0 -44431-4 0  9994","satellite_name":"STARLINK-31634"},{"norad_id":"59331","company":"STARLINK","tle_line2":"2 59331  43.0038 355.8009 0001160 250.4473 109.6253 15.27576085 95527","launch_date":"2024-03-25","type":"LEO","tle_line1":"1 59331U 24057M   25340.10036170 -.00003851  00000+0 -13052-3 0  9993","satellite_name":"STARLINK-31633"},{"norad_id":"59332","company":"STARLINK","tle_line2":"2 59332  43.0018   5.4921 0001681 265.6828  94.3832 15.27599056 95433","launch_date":"2024-03-25","type":"LEO","tle_line1":"1 59332U 24057N   25340.35159263 -.00000461  00000+0 -72124-5 0  9991","satellite_name":"STARLINK-31594"},{"norad_id":"59333","company":"STARLINK","tle_line2":"2 59333  43.0010   5.1431 0001311 274.6331  85.4371 15.27590653 95442","launch_date":"2024-03-25","type":"LEO","tle_line1":"1 59333U 24057P   25340.41955692  .00001566  00000+0  66399-4 0  9990","satellite_name":"STARLINK-31572"},{"norad_id":"59334","company":"STARLINK","tle_line2":"2 59334  43.0017 353.2327 0001185 233.0775 126.9968 15.27590332 95583","launch_date":"2024-03-25","type":"LEO","tle_line1":"1 59334U 24057Q   25340.44641077 -.00000400  00000+0 -49971-5 0  9999","satellite_name":"STARLINK-31573"},{"norad_id":"59335","company":"STARLINK","tle_line2":"2 59335  43.0028 353.6566 0001213 249.9991 110.0730 15.27591363 95578","launch_date":"2024-03-25","type":"LEO","tle_line1":"1 59335U 24057R   25340.38745410 -.00000476  00000+0 -77671-5 0  9990","satellite_name":"STARLINK-31588"},{"norad_id":"59336","company":"STARLINK","tle_line2":"2 59336  43.0026 353.6829 0001154 258.2257 101.8465 15.27570693 95577","launch_date":"2024-03-25","type":"LEO","tle_line1":"1 59336U 24057S   25340.39132470 -.00005689  00000+0 -19743-3 0  9993","satellite_name":"STARLINK-31596"},{"norad_id":"59337","company":"STARLINK","tle_line2":"2 59337  43.0057 354.2270 0001919 277.5779  82.4855 15.27581737 95568","launch_date":"2024-03-25","type":"LEO","tle_line1":"1 59337U 24057T   25340.34905709 -.00004925  00000+0 -16953-3 0  9994","satellite_name":"STARLINK-31612"},{"norad_id":"59338","company":"STARLINK","tle_line2":"2 59338  43.0044 355.8998 0000874 252.3032 107.7724 15.27571009 95524","launch_date":"2024-03-25","type":"LEO","tle_line1":"1 59338U 24057U   25340.11321981 -.00002985  00000+0 -99021-4 0  9996","satellite_name":"STARLINK-31550"},{"norad_id":"59339","company":"STARLINK","tle_line2":"2 59339  43.0018 355.2529 0000720 281.7762  78.3009 15.27565764 95537","launch_date":"2024-03-25","type":"LEO","tle_line1":"1 59339U 24057V   25340.14134260 -.00002261  00000+0 -72691-4 0  9993","satellite_name":"STARLINK-31473"},{"norad_id":"59340","company":"STARLINK","tle_line2":"2 59340  43.0032   9.0910 0001812 276.7149  83.3497 15.27589352 95399","launch_date":"2024-03-25","type":"LEO","tle_line1":"1 59340U 24057W   25340.36782891 -.00003584  00000+0 -12075-3 0  9996","satellite_name":"STARLINK-31562"},{"norad_id":"59341","company":"STARLINK","tle_line2":"2 59341  43.0024   1.9590 0001518 256.2618 103.8065 15.27585188 95474","launch_date":"2024-03-25","type":"LEO","tle_line1":"1 59341U 24057X   25340.34180851 -.00003471  00000+0 -11665-3 0  9992","satellite_name":"STARLINK-31600"}]