[{"OBJECT_NAME":"STARLINK-31632","OBJECT_ID":"2024-057G","EPOCH":"2025-12-06T08:20:45.677760","MEAN_MOTION":15.2757411,"ECCENTRICITY":0.00016853,"INCLINATION":43.0027,"RA_OF_ASC_NODE":5.4683,"ARG_OF_PERICENTER":255.6882,"MEAN_ANOMALY":104.3783,"EPHEMERIS_TYPE":0,"CLASSIFICATION_TYPE":"U","NORAD_CAT_ID":59326,"ELEMENT_SET_NO":999,"REV_AT_EPOCH":9543,"BSTAR":-2.7896909e-5,"MEAN_MOTION_DOT":-1.03e-5,"MEAN_MOTION_DDOT":0},{"OBJECT_NAME":"STARLINK-31599","OBJECT_ID":"2024-057H","EPOCH":"2025-12-06T09:30:53.130528","MEAN_MOTION":15.27585938,"ECCENTRICITY":9.824e-5,"INCLINATION":43.0019,"RA_OF_ASC_NODE":353.7267,"ARG_OF_PERICENTER":206.5749,"MEAN_ANOMALY":153.5053,"EPHEMERIS_TYPE":0,"CLASSIFICATION_TYPE":"U","NORAD_CAT_ID":59327,"ELEMENT_SET_NO":999,"REV_AT_EPOCH":9557,"BSTAR":1.0191059e-5,"MEAN_MOTION_DOT":1.9e-7,"MEAN_MOTION_DDOT":0},{"OBJECT_NAME":"STARLINK-31614","OBJECT_ID":"2024-057J","EPOCH":"2025-12-06T10:06:03.023712","MEAN_MOTION":15.27584869,"ECCENTRICITY":7.965e-5,"INCLINATION":43.0038,"RA_OF_ASC_NODE":353.9093,"ARG_OF_PERICENTER":229.5314,"MEAN_ANOMALY":130.5468,"EPHEMERIS_TYPE":0,"CLASSIFICATION_TYPE":"U","NORAD_CAT_ID":59328,"ELEMENT_SET_NO":999,"REV_AT_EPOCH":9557,"BSTAR":8.532461e-6,"MEAN_MOTION_DOT":-2.7e-7,"MEAN_MOTION_DDOT":0},{"OBJECT_NAME":"STARLINK-31493","OBJECT_ID":"2024-057K","EPOCH":"2025-12-06T09:41:58.668864","MEAN_MOTION":15.2759485,"ECCENTRICITY":9.55e-5,"INCLINATION":43.002,"RA_OF_ASC_NODE":353.7876,"ARG_OF_PERICENTER":260.4992,"MEAN_ANOMALY":99.5752,"EPHEMERIS_TYPE":0,"CLASSIFICATION_TYPE":"U","NORAD_CAT_ID":59329,"ELEMENT_SET_NO":999,"REV_AT_EPOCH":9557,"BSTAR":-9.184552e-5,"MEAN_MOTION_DOT":-2.79e-5,"MEAN_MOTION_DDOT":0},{"OBJECT_NAME":"STARLINK-31634","OBJECT_ID":"2024-057L","EPOCH":"2025-12-06T02:28:14.147328","MEAN_MOTION":15.27566522,"ECCENTRICITY":0.000129,"INCLINATION":43.0048,"RA_OF_ASC_NODE":355.8238,"ARG_OF_PERICENTER":274.2772,"MEAN_ANOMALY":85.7933,"EPHEMERIS_TYPE":0,"CLASSIFICATION_TYPE":"U","NORAD_CAT_ID":59330,"ELEMENT_SET_NO":999,"REV_AT_EPOCH":9552,"BSTAR":-4.4430534e-5,"MEAN_MOTION_DOT":-1.484e-5,"MEAN_MOTION_DDOT":0},{"OBJECT_NAME":"STARLINK-31633","OBJECT_ID":"2024-057M","EPOCH":"2025-12-06T02:24:31.250880","MEAN_MOTION":15.27576085,"ECCENTRICITY":0.00011603,"INCLINATION":43.0038,"RA_OF_ASC_NODE":355.8009,"ARG_OF_PERICENTER":250.4473,"MEAN_ANOMALY":109.6253,"EPHEMERIS_TYPE":0,"CLASSIFICATION_TYPE":"U","NORAD_CAT_ID":59331,"ELEMENT_SET_NO":999,"REV_AT_EPOCH":9552,"BSTAR":-0.00013051944,"MEAN_MOTION_DOT":-3.851e-5,"MEAN_MOTION_DDOT":0},{"OBJECT_NAME":"STARLINK-31594","OBJECT_ID":"2024-057N","EPOCH":"2025-12-06T08:26:17.603232","MEAN_MOTION":15.27599056,"ECCENTRICITY":0.00016812,"INCLINATION":43.0018,"RA_OF_ASC_NODE":5.4921,"ARG_OF_PERICENTER":265.6828,"MEAN_ANOMALY":94.3832,"EPHEMERIS_TYPE":0,"CLASSIFICATION_TYPE":"U","NORAD_CAT_ID":59332,"ELEMENT_SET_NO":999,"REV_AT_EPOCH":9543,"BSTAR":-7.212401e-6,"MEAN_MOTION_DOT":-4.61e-6,"MEAN_MOTION_DDOT":0},{"OBJECT_NAME":"STARLINK-31572","OBJECT_ID":"2024-057P","EPOCH":"2025-12-06T10:04:09.717888","MEAN_MOTION":15.27590653,"ECCENTRICITY":0.00013111,"INCLINATION":43.001,"RA_OF_ASC_NODE":5.1431,"ARG_OF_PERICENTER":274.6331,"MEAN_ANOMALY":85.4371,"EPHEMERIS_TYPE":0,"CLASSIFICATION_TYPE":"U","NORAD_CAT_ID":59333,"ELEMENT_SET_NO":999,"REV_AT_EPOCH":9544,"BSTAR":6.6398682e-5,"MEAN_MOTION_DOT":1.566e-5,"MEAN_MOTION_DDOT":0},{"OBJECT_NAME":"STARLINK-31573","OBJECT_ID":"2024-057Q","EPOCH":"2025-12-06T10:42:49.890528","MEAN_MOTION":15.27590332,"ECCENTRICITY":0.00011854,"INCLINATION":43.0017,"RA_OF_ASC_NODE":353.2327,"ARG_OF_PERICENTER":233.0775,"MEAN_ANOMALY":126.9968,"EPHEMERIS_TYPE":0,"CLASSIFICATION_TYPE":"U","NORAD_CAT_ID":59334,"ELEMENT_SET_NO":999,"REV_AT_EPOCH":9558,"BSTAR":-4.997123e-6,"MEAN_MOTION_DOT":-4.0e-6,"MEAN_MOTION_DDOT":0},{"OBJECT_NAME":"STARLINK-31588","OBJECT_ID":"2024-057R","EPOCH":"2025-12-06T09:17:56.034240","MEAN_MOTION":15.27591363,"ECCENTRICITY":0.00012131,"INCLINATION":43.0028,"RA_OF_ASC_NODE":353.6566,"ARG_OF_PERICENTER":249.9991,"MEAN_ANOMALY":110.073,"EPHEMERIS_TYPE":0,"CLASSIFICATION_TYPE":"U","NORAD_CAT_ID":59335,"ELEMENT_SET_NO":999,"REV_AT_EPOCH":9557,"BSTAR":-7.767124e-6,"MEAN_MOTION_DOT":-4.76e-6,"MEAN_MOTION_DDOT":0},{"OBJECT_NAME":"STARLINK-31596","OBJECT_ID":"2024-057S","EPOCH":"2025-12-06T09:23:30.454080","MEAN_MOTION":15.27570693,"ECCENTRICITY":0.00011546,"INCLINATION":43.0026,"RA_OF_ASC_NODE":353.6829,"ARG_OF_PERICENTER":258.2257,"MEAN_ANOMALY":101.8465,"EPHEMERIS_TYPE":0,"CLASSIFICATION_TYPE":"U","NORAD_CAT_ID":59336,"ELEMENT_SET_NO":999,"REV_AT_EPOCH":9557,"BSTAR":-0.00019743239,"MEAN_MOTION_DOT":-5.689e-5,"MEAN_MOTION_DDOT":0},{"OBJECT_NAME":"STARLINK-31612","OBJECT_ID":"2024-057T","EPOCH":"2025-12-06T08:22:38.532576","MEAN_MOTION":15.27581737,"ECCENTRICITY":0.00019195,"INCLINATION":43.0057,"RA_OF_ASC_NODE":354.227,"ARG_OF_PERICENTER":277.5779,"MEAN_ANOMALY":82.4855,"EPHEMERIS_TYPE":0,"CLASSIFICATION_TYPE":"U","NORAD_CAT_ID":59337,"ELEMENT_SET_NO":999,"REV_AT_EPOCH":9556,"BSTAR":-0.00016952513,"MEAN_MOTION_DOT":-4.925e-5,"MEAN_MOTION_DDOT":0},{"OBJECT_NAME":"STARLINK-31550","OBJECT_ID":"2024-057U","EPOCH":"2025-12-06T02:43:02.191584","MEAN_MOTION":15.27571009,"ECCENTRICITY":8.742e-5,"INCLINATION":43.0044,"RA_OF_ASC_NODE":355.8998,"ARG_OF_PERICENTER":252.3032,"MEAN_ANOMALY":107.7724,"EPHEMERIS_TYPE":0,"CLASSIFICATION_TYPE":"U","NORAD_CAT_ID":59338,"ELEMENT_SET_NO":999,"REV_AT_EPOCH":9552,"BSTAR":-9.9021432e-5,"MEAN_MOTION_DOT":-2.985e-5,"MEAN_MOTION_DDOT":0},{"OBJECT_NAME":"STARLINK-31473","OBJECT_ID":"2024-057V","EPOCH":"2025-12-06T03:23:32.000640","MEAN_MOTION":15.27565764,"ECCENTRICITY":7.204e-5,"INCLINATION":43.0018,"RA_OF_ASC_NODE":355.2529,"ARG_OF_PERICENTER":281.7762,"MEAN_ANOMALY":78.3009,"EPHEMERIS_TYPE":0,"CLASSIFICATION_TYPE":"U","NORAD_CAT_ID":59339,"ELEMENT_SET_NO":999,"REV_AT_EPOCH":9553,"BSTAR":-7.269093e-5,"MEAN_MOTION_DOT":-2.261e-5,"MEAN_MOTION_DDOT":0},{"OBJECT_NAME":"STARLINK-31562","OBJECT_ID":"2024-057W","EPOCH":"2025-12-06T08:49:40.417824","MEAN_MOTION":15.27589352,"ECCENTRICITY":0.00018122,"INCLINATION":43.0032,"RA_OF_ASC_NODE":9.091,"ARG_OF_PERICENTER":276.7149,"MEAN_ANOMALY":83.3497,"EPHEMERIS_TYPE":0,"CLASSIFICATION_TYPE":"U","NORAD_CAT_ID":59340,"ELEMENT_SET_NO":999,"REV_AT_EPOCH":9539,"BSTAR":-0.00012074607,"MEAN_MOTION_DOT":-3.584e-5,"MEAN_MOTION_DDOT":0},{"OBJECT_NAME":"STARLINK-31600","OBJECT_ID":"2024-057X","EPOCH":"2025-12-06T08:12:12.255264","MEAN_MOTION":15.27585188,"ECCENTRICITY":0.00015183,"INCLINATION":43.0024,"RA_OF_ASC_NODE":1.959,"ARG_OF_PERICENTER":256.2618,"MEAN_ANOMALY":103.8065,"EPHEMERIS_TYPE":0,"CLASSIFICATION_TYPE":"U","NORAD_CAT_ID":59341,"ELEMENT_SET_NO":999,"REV_AT_EPOCH":9547,"BSTAR":-0.00011665328,"MEAN_MOTION_DOT":-3.471e-5,"MEAN_MOTION_DDOT":0}]
